[
    {
        "CCSDS_OMM_VERS": "3.0",
        "COMMENT": "GENERATED VIA SPACE-TRACK.ORG API",
        "CREATION_DATE": "2025-03-02T18:08:23",
        "ORIGINATOR": "18 SPCS",
        "OBJECT_NAME": "COSMOS 2478 (GLONASS)",
        "OBJECT_ID": "2011-071A",
        "CENTER_NAME": "EARTH",
        "REF_FRAME": "TEME",
        "TIME_SYSTEM": "UTC",
        "MEAN_ELEMENT_THEORY": "SGP4",
        "EPOCH": "2025-03-02T10:13:13.118592",
        "MEAN_MOTION": "2.13015327",
        "ECCENTRICITY": "0.00163870",
        "INCLINATION": "65.7179",
        "RA_OF_ASC_NODE": "330.7461",
        "ARG_OF_PERICENTER": "224.8686",
        "MEAN_ANOMALY": "341.6984",
        "EPHEMERIS_TYPE": "0",
        "CLASSIFICATION_TYPE": "U",
        "NORAD_CAT_ID": "37938",
        "ELEMENT_SET_NO": "999",
        "REV_AT_EPOCH": "10309",
        "BSTAR": "0.00000000000000",
        "MEAN_MOTION_DOT": "-0.00000050",
        "MEAN_MOTION_DDOT": "0.0000000000000",
        "SEMIMAJOR_AXIS": "25514.943",
        "PERIOD": "676.008",
        "APOAPSIS": "19178.620",
        "PERIAPSIS": "19094.997",
        "OBJECT_TYPE": "PAYLOAD",
        "RCS_SIZE": "LARGE",
        "COUNTRY_CODE": "CIS",
        "LAUNCH_DATE": "2011-11-28",
        "SITE": "PKMTR",
        "DECAY_DATE": null,
        "FILE": "4657142",
        "GP_ID": "282083887",
        "TLE_LINE0": "0 COSMOS 2478 (GLONASS)",
        "TLE_LINE1": "1 37938U 11071A   25061.42584628 -.00000050  00000-0  00000-0 0  9999",
        "TLE_LINE2": "2 37938  65.7179 330.7461 0016387 224.8686 341.6984  2.13015327103094"
    }
]